admin_id,admin_name,phone_no
20222001,Kenyon,62945212
20222002,Shellie,87847001
20222003,Dalton,87545462
20222004,Castor,57945514
20222005,Clayton,21046341
20222006,Blossom,12240241
20222007,Kenneth,67545027
20222008,Randall,88540216
20222009,Yardley,62648138
20222010,Alana,54248285
20222011,Irma,37041347
20222012,Blythe,63645987
20222013,Walker,45140147
20222014,Tara,51041766
20222015,Noble,49444887
20222016,Mark,62141761
20222017,Emery,51548655
20222018,Kyla,20345929
20222019,Justin,13744792
20222020,September,28641773
20222021,Keefe,67742549
20222022,Zahir,73946942
20222023,Tate,37143962
20222024,Cameron,84849561
20222025,Lucius,57547123
20222026,Amal,67748810
20222027,Morgan,61448566
20222028,Anne,82448691
20222029,Kylie,38442073
20222030,Imelda,29743797
20222031,Jessica,37144161
20222032,Blossom,27144257
20222033,Bernard,86446422
20222034,Kerry,92548323
20222035,Gavin,94048172
20222036,Oren,62441830
20222037,Shoshana,61646310
20222038,Madonna,69243037
20222039,Lillith,94447339
20222040,Yasir,48643372
20222041,Virginia,95744178
20222042,Alec,78546806
20222043,Odessa,88445163
20222044,Hayden,18740141
20222045,Gloria,22843064
20222046,Ryan,85844748
20222047,Bernard,38340420
20222048,Clio,64341875
20222049,Shad,56348846
20222050,Amery,54842739
20222051,Raphael,97847734
20222052,Ali,73643639
20222053,Bruce,17248521
20222054,Dillon,52543462
20222055,Riley,71343459
20222056,Elmo,48740284
20222057,Dieter,68648863
20222058,Dorian,22347848
20222059,Damon,68149667
20222060,Kevin,76945231
20222061,Jelani,40744728
20222062,Hyatt,50141776
20222063,Omar,57849731
20222064,Charissa,21448016
20222065,Logan,61545035
20222066,Bernard,60942632
20222067,Yuri,88447164
20222068,Lani,69640012
20222069,Wynne,18246887
20222070,Savannah,68943423
20222071,Tate,19945214
20222072,Selma,18647028
20222073,Dawn,13443714
20222074,Deirdre,77747133
20222075,Alexander,47746952
20222076,Larissa,66443223
20222077,Patience,44546006
20222078,Yoko,48343444
20222079,Jorden,51642854
20222080,Francesca,39345199
20222081,Troy,37647941
20222082,Winter,65949510
20222083,Ocean,68441581
20222084,Cruz,79847547
20222085,Ainsley,52641680
20222086,Phelan,22343037
20222087,Phillip,62549126
20222088,Brett,90149122
20222089,Suki,55044432
20222090,Tucker,55142771
20222091,Galvin,37645635
20222092,Zahir,64640628
20222093,Vance,71443077
20222094,Madeson,73844373
20222095,Aurora,54544736
20222096,Addison,73241738
20222097,Hope,34847048
20222098,Renee,41648142
20222099,Mira,54743520
20222100,Cassidy,38141587
